{
"type": "FeatureCollection",
"name": "Amshet_boundary",
"crs": { "type": "name", "properties": { "name": "urn:ogc:def:crs:OGC:1.3:CRS84" } },
"features": [
{ "type": "Feature", "properties": { "fid": 29.0, "Site_Name": "Amshet", "Project_ID": "AMST", "Area_Ha": 2.968555930471886, "Unit_Type": "Boundary", "Strata_ID": null, "Strata_Typ": null, "Carbon_Inc": null, "Density_Cl": null, "Dominant_S": null, "Baseline_Y": 2022, "Monitoring": 2026 }, "geometry": { "type": "Polygon", "coordinates": [ [ [ 73.526686777803533, 18.128210734254154 ], [ 73.526867249593892, 18.12821949719071 ], [ 73.526885541216572, 18.128212691470758 ], [ 73.526916101374283, 18.128201321021372 ], [ 73.527092166962419, 18.128130835177519 ], [ 73.527174627064625, 18.128097823142021 ], [ 73.527175911354433, 18.128097308989695 ], [ 73.527261870599006, 18.128044966714778 ], [ 73.527329719432728, 18.127980371652995 ], [ 73.527406974969338, 18.127927205598287 ], [ 73.527557116089994, 18.127849850095288 ], [ 73.527810976179794, 18.127719056210346 ], [ 73.527810982442645, 18.127719052983601 ], [ 73.527868860697694, 18.127710409815727 ], [ 73.528047797063692, 18.127618649573595 ], [ 73.528156160766102, 18.127538463959091 ], [ 73.528209718508478, 18.127478302150703 ], [ 73.528249466687498, 18.127365034986262 ], [ 73.528320475155866, 18.127206578336839 ], [ 73.528277083203278, 18.127092675715225 ], [ 73.528245169049285, 18.12693191814094 ], [ 73.528190767841934, 18.126808845681047 ], [ 73.528132591813886, 18.1267584297821 ], [ 73.527507424677893, 18.126710493254187 ], [ 73.52716362828437, 18.1267260353316 ], [ 73.526973949280048, 18.12668218463379 ], [ 73.526783839564473, 18.126689815944818 ], [ 73.526678864842182, 18.126743526835227 ], [ 73.526645849271205, 18.126903787785068 ], [ 73.526480570221011, 18.126972179918866 ], [ 73.526394015604325, 18.127095688411583 ], [ 73.52638851821682, 18.127099101237295 ], [ 73.526360583770639, 18.127116443178426 ], [ 73.526360566304163, 18.12711647376231 ], [ 73.526059218213931, 18.127644134062027 ], [ 73.526059218220283, 18.127644134064663 ], [ 73.526059218220169, 18.127644134064663 ], [ 73.525957486348929, 18.127641462459572 ], [ 73.525950131826349, 18.12766866316932 ], [ 73.52596010142625, 18.127801995985489 ], [ 73.525947060927933, 18.127940831193495 ], [ 73.52605287446481, 18.128118054642201 ], [ 73.526023715374507, 18.12817523204227 ], [ 73.52604565793537, 18.128202657023941 ], [ 73.526074945869098, 18.128216403561787 ], [ 73.526253103102292, 18.128300023018184 ], [ 73.526390153281071, 18.128340443187895 ], [ 73.526425443091199, 18.128286956378936 ], [ 73.526432417710467, 18.128210538689263 ], [ 73.526413902186675, 18.128152097264937 ], [ 73.526366957453234, 18.128084352592975 ], [ 73.52635697512676, 18.128070742330848 ], [ 73.526356975126276, 18.128070742330657 ], [ 73.526390392998508, 18.128072370401021 ], [ 73.526615423332885, 18.128008221341737 ], [ 73.526686777803533, 18.128210734254154 ] ], [ [ 73.527023254381874, 18.127998847406683 ], [ 73.527057662084985, 18.128036680812841 ], [ 73.527057663735405, 18.128036682627563 ], [ 73.527022843263978, 18.127998395356897 ], [ 73.527023254381874, 18.127998847406683 ] ], [ [ 73.52700929642198, 18.127987239137592 ], [ 73.527009296422406, 18.127987239137351 ], [ 73.527022843263978, 18.127998395356897 ], [ 73.52700929642198, 18.127987239137592 ] ], [ [ 73.527096595410427, 18.127273224669743 ], [ 73.527087694860782, 18.127248780232577 ], [ 73.527108241877045, 18.127295948942361 ], [ 73.527096595410427, 18.127273224669743 ] ], [ [ 73.526768758125996, 18.127230497551665 ], [ 73.52681169756228, 18.127162406082586 ], [ 73.526895678176913, 18.127140541994098 ], [ 73.526811690614053, 18.127162417100795 ], [ 73.526768758125996, 18.127230497551665 ] ], [ [ 73.52659859404632, 18.127758396670121 ], [ 73.526515082648515, 18.127615669587797 ], [ 73.526515089822055, 18.127615681847935 ], [ 73.52659859404632, 18.127758396670121 ] ], [ [ 73.52644981878349, 18.127568874312558 ], [ 73.526554301172808, 18.127766694368976 ], [ 73.526554301172808, 18.127766694368976 ], [ 73.52644981878349, 18.127568874312558 ] ], [ [ 73.526670416682862, 18.127816205018696 ], [ 73.52670024382742, 18.127788138620684 ], [ 73.526700243830675, 18.12778813862051 ], [ 73.526670416682862, 18.127816205018696 ] ], [ [ 73.527439263071344, 18.127453657073648 ], [ 73.527685003623219, 18.127287078157728 ], [ 73.527439263071997, 18.127453657073605 ], [ 73.527439263071344, 18.127453657073648 ] ] ] } }
]
}
