{
"type": "FeatureCollection",
"name": "Botanical_boundary",
"crs": { "type": "name", "properties": { "name": "urn:ogc:def:crs:OGC:1.3:CRS84" } },
"features": [
{ "type": "Feature", "properties": { "fid": 30.0, "Site_Name": "Botanical", "Project_ID": "BOT", "Area_Ha": 1.820407571906957, "Unit_Type": "Boundary", "Strata_ID": null, "Strata_Typ": null, "Carbon_Inc": null, "Density_Cl": null, "Dominant_S": null, "Baseline_Y": 2018, "Monitoring": 2026 }, "geometry": { "type": "Polygon", "coordinates": [ [ [ 73.474027678957171, 18.102214062914801 ], [ 73.473826153206929, 18.102498710486419 ], [ 73.473695735483389, 18.102584816074163 ], [ 73.473648092185584, 18.102622980711658 ], [ 73.473574236628778, 18.102753940950805 ], [ 73.473552825633789, 18.102798178330897 ], [ 73.473711696506712, 18.102866465542867 ], [ 73.473872486537587, 18.102915496897385 ], [ 73.474194081399858, 18.103011883604978 ], [ 73.474600802962868, 18.103193567940824 ], [ 73.47472919934674, 18.103239828684064 ], [ 73.474831726659602, 18.10313674440874 ], [ 73.474872897374595, 18.103036526128616 ], [ 73.474848741243676, 18.103018320883614 ], [ 73.474819115122131, 18.10297409849144 ], [ 73.474854377746908, 18.102847859600566 ], [ 73.474921412900656, 18.102593678441103 ], [ 73.474990207287348, 18.102338673288934 ], [ 73.475047025121157, 18.102151440570751 ], [ 73.475000237371702, 18.102090744053882 ], [ 73.474950119180761, 18.102009912377898 ], [ 73.475013011653218, 18.101829430648159 ], [ 73.475009508793249, 18.101626639159392 ], [ 73.474989438985943, 18.101515881976098 ], [ 73.474923870034999, 18.101398061938809 ], [ 73.474872081234849, 18.101393146248057 ], [ 73.474866090998688, 18.101392577665749 ], [ 73.474776859388058, 18.101376790145682 ], [ 73.474605057076886, 18.101385485291601 ], [ 73.474474669556372, 18.10146824026836 ], [ 73.474378629908713, 18.101631702160983 ], [ 73.474353606118157, 18.101688479067452 ], [ 73.474328437307733, 18.101762012154506 ], [ 73.47428590596742, 18.10181697476408 ], [ 73.474187165122757, 18.101988793819764 ], [ 73.474068052463807, 18.102157036703201 ], [ 73.474027678957171, 18.102214062914801 ] ] ] } }
]
}
