{
"type": "FeatureCollection",
"name": "Ngo_boundary",
"crs": { "type": "name", "properties": { "name": "urn:ogc:def:crs:OGC:1.3:CRS84" } },
"features": [
{ "type": "Feature", "properties": { "fid": 2.0, "Site_Name": "Ngo", "Project_ID": "NGO", "Area_Ha": 1.689810701914807, "Unit_Type": "Boundary", "Strata_ID": null, "Strata_Typ": null, "Carbon_Inc": null, "Density_Cl": null, "Dominant_S": null, "Baseline_Y": 2019, "Monitoring": 2026 }, "geometry": { "type": "Polygon", "coordinates": [ [ [ 73.424335185590394, 18.09566389662902 ], [ 73.424364406860548, 18.095674063376187 ], [ 73.424448536843784, 18.095553278912874 ], [ 73.424654582755352, 18.095456850357433 ], [ 73.424949872391991, 18.095213982641091 ], [ 73.424933025275806, 18.095185813071183 ], [ 73.424872213339015, 18.095157284406632 ], [ 73.424836055796249, 18.095103261131303 ], [ 73.424779188454181, 18.094906572842035 ], [ 73.424799166440309, 18.094857680078359 ], [ 73.42479004320532, 18.094785189635495 ], [ 73.424761108899219, 18.094742905338816 ], [ 73.424654202895425, 18.094678960141394 ], [ 73.424536880236303, 18.094687345709165 ], [ 73.424402105456551, 18.094735300571749 ], [ 73.424211049123926, 18.094794475443308 ], [ 73.424062955034216, 18.094692817422303 ], [ 73.423934171371528, 18.094617013078356 ], [ 73.423882712269602, 18.094635280495044 ], [ 73.423618402320855, 18.09469152007642 ], [ 73.42320018449665, 18.094750004930425 ], [ 73.422896429612265, 18.094710145144365 ], [ 73.422706292046101, 18.094666542196247 ], [ 73.422624468936363, 18.094665872955439 ], [ 73.422502543369376, 18.094642683690601 ], [ 73.422387506523833, 18.094668606606984 ], [ 73.422377621688099, 18.094681373717659 ], [ 73.422341505772692, 18.094759334106577 ], [ 73.422417608231939, 18.094853396487359 ], [ 73.422535003201276, 18.094973492565689 ], [ 73.422650060294146, 18.095081889482255 ], [ 73.422820324172591, 18.095162705908603 ], [ 73.422918065466476, 18.095158833270204 ], [ 73.423136469758589, 18.095182811217775 ], [ 73.423297266817301, 18.095229677891432 ], [ 73.423326065093931, 18.095287145249706 ], [ 73.423357587775101, 18.095313098931541 ], [ 73.423368422075939, 18.095467363252162 ], [ 73.423427814221142, 18.095518072736894 ], [ 73.423554698618815, 18.095533126015098 ], [ 73.423738793793333, 18.095433015032221 ], [ 73.423791129917163, 18.095316642988536 ], [ 73.423936092716119, 18.095222051929742 ], [ 73.424027289300312, 18.095130525362993 ], [ 73.42415542605643, 18.095142084469668 ], [ 73.424180821752842, 18.095170323953372 ], [ 73.424190205616867, 18.095213616575318 ], [ 73.424259472250341, 18.095252726519096 ], [ 73.424246842602116, 18.095367671168727 ], [ 73.424216557024451, 18.095476631550401 ], [ 73.42430124628352, 18.095635003351472 ], [ 73.424335185590394, 18.09566389662902 ] ] ] } }
]
}
